NORAD_CAT_ID,OBJECT_NAME,OBJECT_TYPE,EPOCH,MEAN_MOTION,ECCENTRICITY,INCLINATION,RA_OF_ASC_NODE,ARG_OF_PERICENTER,MEAN_ANOMALY,BSTAR,MEAN_MOTION_DOT,MEAN_MOTION_DDOT,TLE_LINE0,TLE_LINE1,TLE_LINE2,SEMIMAJOR_AXIS,PERIOD,APOGEE,PERIGEE,DECAYED
55650.0,STARLINK-5494,PAYLOAD,2023-08-05 23:29:58,14.98293594,0.0002844,70.0004,51.4398,254.4705,105.614,1.1687e-05,4.6e-07,0.0,0 STARLINK-5494,1 55650U 23021Y   23217.97914680  .00000046  00000-0  11687-4 0  9995,2 55650  70.0004  51.4398 0002844 254.4705 105.6140 14.98293594 26682,6950.305,96.109,574.147,570.194,0.0
55650.0,STARLINK-5494,PAYLOAD,2023-08-06 05:54:29,14.98322361,0.000357,69.9992,50.7584,273.2181,86.8569,-6.5961e-05,-8.8e-06,0.0,0 STARLINK-5494,1 55650U 23021Y   23218.24617046 -.00000880  00000-0 -65961-4 0  9994,2 55650  69.9992  50.7584 0003570 273.2181  86.8569 14.98322361 26723,6950.217,96.107,574.563,569.6,0.0
55650.0,STARLINK-5494,PAYLOAD,2023-08-07 05:56:30,14.98329086,0.0003337,69.9994,48.2339,272.4748,87.6029,4.0916e-06,-4.4e-07,0.0,0 STARLINK-5494,1 55650U 23021Y   23219.24756966 -.00000044  00000-0  40916-5 0  9995,2 55650  69.9994  48.2339 0003337 272.4748  87.6029 14.98329086 26873,6950.196,96.107,574.38,569.741,0.0
55650.0,STARLINK-5494,PAYLOAD,2023-08-08 05:58:30,14.98335975,0.0003404,69.9992,45.7086,270.6286,89.4483,0.00018279,2.089e-05,0.0,0 STARLINK-5494,1 55650U 23021Y   23220.24896332  .00002089  00000-0  18279-3 0  9994,2 55650  69.9992  45.7086 0003404 270.6286  89.4483 14.98335975 27020,6950.174,96.107,574.405,569.674,0.0
55650.0,STARLINK-5494,PAYLOAD,2023-08-08 23:35:57,14.98348344,0.0003419,69.9992,43.8568,270.6564,89.4203,0.00019293,2.211e-05,0.0,0 STARLINK-5494,1 55650U 23021Y   23220.98330916  .00002211  00000-0  19293-3 0  9990,2 55650  69.9992  43.8568 0003419 270.6564  89.4203 14.98348344 27135,6950.136,96.106,574.377,569.625,0.0
55650.0,STARLINK-5494,PAYLOAD,2023-08-09 18:49:35,14.98337726,0.0002881,69.9995,41.8364,266.3608,93.7221,-4.7544e-05,-6.6e-06,0.0,0 STARLINK-5494,1 55650U 23021Y   23221.78443759 -.00000660  00000-0 -47544-4 0  9998,2 55650  69.9995  41.8364 0002881 266.3608  93.7221 14.98337726 27256,6950.169,96.107,574.036,570.032,0.0
55650.0,STARLINK-5494,PAYLOAD,2023-08-09 23:38:00,14.9832176,0.0003029,70.0012,41.3347,267.0437,93.0375,6.6961e-05,7.06e-06,0.0,0 STARLINK-5494,1 55650U 23021Y   23221.98472470  .00000706  00000-0  66961-4 0  9995,2 55650  70.0012  41.3347 0003029 267.0437  93.0375 14.98321760 27285,6950.218,96.108,574.189,569.978,0.0
55650.0,STARLINK-5494,PAYLOAD,2023-08-10 10:50:55,14.98337873,0.0003385,69.9999,40.1547,267.7301,92.347,-0.00011767,-1.497e-05,0.0,0 STARLINK-5494,1 55650U 23021Y   23222.45203538 -.00001497  00000-0 -11767-3 0  9998,2 55650  69.9999  40.1547 0003385 267.7301  92.3470 14.98337873 27355,6950.169,96.106,574.386,569.681,0.0
55650.0,STARLINK-5494,PAYLOAD,2023-08-11 18:53:36,14.98331147,0.0003329,69.9998,36.7869,267.5368,92.541,1.9029e-05,1.34e-06,0.0,0 STARLINK-5494,1 55650U 23021Y   23223.78723087  .00000134  00000-0  19029-4 0  9996,2 55650  69.9998  36.7869 0003329 267.5368  92.5410 14.98331147 27557,6950.189,96.107,574.368,569.741,0.0
55650.0,STARLINK-5494,PAYLOAD,2023-08-12 22:07:53,14.9833274,0.0003293,70.0,33.9252,268.5991,91.4791,-9.8136e-06,-2.1e-06,0.0,0 STARLINK-5494,1 55650U 23021Y   23224.92214935 -.00000210  00000-0 -98136-5 0  9994,2 55650  70.0000  33.9252 0003293 268.5991  91.4791 14.98332740 27721,6950.184,96.107,574.338,569.761,0.0
55650.0,STARLINK-5494,PAYLOAD,2023-08-13 18:57:39,14.98325984,0.0003235,70.0004,31.7374,269.2604,90.8185,-5.1814e-05,-7.11e-06,0.0,0 STARLINK-5494,1 55650U 23021Y   23225.79003561 -.00000711  00000-0 -51814-4 0  9998,2 55650  70.0004  31.7374 0003235 269.2604  90.8185 14.98325984 27857,6950.205,96.107,574.319,569.822,0.0
55650.0,STARLINK-5494,PAYLOAD,2023-08-14 10:58:59,14.98330966,0.0003306,70.0001,30.0543,270.2358,89.8422,1.8537e-05,1.28e-06,0.0,0 STARLINK-5494,1 55650U 23021Y   23226.45763103  .00000128  00000-0  18537-4 0  9992,2 55650  70.0001  30.0543 0003306 270.2358  89.8422 14.98330966 27950,6950.19,96.107,574.353,569.757,0.0
55650.0,STARLINK-5494,PAYLOAD,2023-08-15 11:01:00,14.98327886,0.0003356,70.0001,27.5284,269.678,90.3995,7.6043e-05,8.14e-06,0.0,0 STARLINK-5494,1 55650U 23021Y   23227.45902989  .00000814  00000-0  76043-4 0  9998,2 55650  70.0001  27.5284 0003356 269.6780  90.3995 14.98327886 28106,6950.199,96.107,574.397,569.732,0.0
55650.0,STARLINK-5494,PAYLOAD,2023-08-16 11:03:01,14.98332169,0.0003245,69.9993,25.0035,270.3682,89.7105,-3.2034e-05,-4.75e-06,0.0,0 STARLINK-5494,1 55650U 23021Y   23228.46042957 -.00000475  00000-0 -32034-4 0  9997,2 55650  69.9993  25.0035 0003245 270.3682  89.7105 14.98332169 28258,6950.186,96.107,574.307,569.796,0.0
55650.0,STARLINK-5494,PAYLOAD,2023-08-17 11:05:02,14.9833087,0.0003204,70.0004,22.479,271.1336,88.9456,-4.7598e-05,-6.61e-06,0.0,0 STARLINK-5494,1 55650U 23021Y   23229.46182881 -.00000661  00000-0 -47598-4 0  9997,2 55650  70.0004  22.4790 0003204 271.1336  88.9456 14.98330870 28407,6950.19,96.107,574.282,569.828,0.0
55650.0,STARLINK-5494,PAYLOAD,2023-08-18 11:07:02,14.98329806,0.000321,70.0015,19.9553,269.45,90.6291,-2.5689e-05,-4e-06,0.0,0 STARLINK-5494,1 55650U 23021Y   23230.46322835 -.00000400  00000-0 -25689-4 0  9992,2 55650  70.0015  19.9553 0003210 269.4500  90.6291 14.98329806 28557,6950.193,96.107,574.29,569.827,0.0
55650.0,STARLINK-5494,PAYLOAD,2023-08-19 11:09:04,14.98325587,0.0003169,70.001,17.4304,270.4573,89.6223,-3.4544e-05,-5.05e-06,0.0,0 STARLINK-5494,1 55650U 23021Y   23231.46463169 -.00000505  00000-0 -34544-4 0  9995,2 55650  70.0010  17.4304 0003169 270.4573  89.6223 14.98325587 28706,6950.207,96.107,574.274,569.869,0.0
55650.0,STARLINK-5494,PAYLOAD,2023-08-20 12:47:13,14.98325605,0.0003349,70.0018,14.7371,269.5308,90.5468,3.3469e-05,3.06e-06,0.0,0 STARLINK-5494,1 55650U 23021Y   23232.53279092  .00000306  00000-0  33469-4 0  9996,2 55650  70.0018  14.7371 0003349 269.5308  90.5468 14.98325605 28863,6950.206,96.107,574.399,569.744,0.0
55650.0,STARLINK-5494,PAYLOAD,2023-08-20 19:11:44,14.98333393,0.0003314,70.001,14.063,268.7224,91.3555,6.0257e-05,6.26e-06,0.0,0 STARLINK-5494,1 55650U 23021Y   23232.79982518  .00000626  00000-0  60257-4 0  9998,2 55650  70.0010  14.0630 0003314 268.7224  91.3555 14.98333393 28900,6950.182,96.107,574.351,569.744,0.0
55650.0,STARLINK-5494,PAYLOAD,2023-08-21 11:13:05,14.98326248,0.0003313,70.001,12.3794,271.1244,88.9535,5.4554e-05,5.58e-06,0.0,0 STARLINK-5494,1 55650U 23021Y   23233.46742963  .00000558  00000-0  54554-4 0  9998,2 55650  70.0010  12.3794 0003313 271.1244  88.9535 14.98326248 29004,6950.204,96.107,574.372,569.767,0.0
55650.0,STARLINK-5494,PAYLOAD,2023-08-22 11:15:07,14.98323349,0.0002604,70.0014,9.855,264.851,95.2351,6.452e-05,6.77e-06,0.0,0 STARLINK-5494,1 55650U 23021Y   23234.46883155  .00000677  00000-0  64520-4 0  9994,2 55650  70.0014   9.8550 0002604 264.8510  95.2351 14.98323349 29158,6950.213,96.107,573.888,570.269,0.0
55650.0,STARLINK-5494,PAYLOAD,2023-08-23 12:53:15,14.98330675,0.0003222,70.0016,7.1621,274.1897,85.8894,1.6149e-05,1e-06,0.0,0 STARLINK-5494,1 55650U 23021Y   23235.53698756  .00000100  00000-0  16149-4 0  9999,2 55650  70.0016   7.1621 0003222 274.1897  85.8894 14.98330675 29314,6950.191,96.107,574.295,569.816,0.0
55650.0,STARLINK-5494,PAYLOAD,2023-08-24 20:55:56,14.98334455,0.0003328,70.0014,3.7952,273.6067,86.4712,5.8585e-05,6.06e-06,0.0,0 STARLINK-5494,1 55650U 23021Y   23236.87218181  .00000606  00000-0  58585-4 0  9998,2 55650  70.0014   3.7952 0003328 273.6067  86.4712 14.98334455 29812,6950.179,96.107,574.357,569.731,0.0
55650.0,STARLINK-5494,PAYLOAD,2023-08-25 09:45:01,14.9832637,0.0003232,70.0021,2.4497,273.7571,86.3218,-7.4136e-05,-9.77e-06,0.0,0 STARLINK-5494,1 55650U 23021Y   23237.40627008 -.00000977  00000-0 -74136-4 0  9993,2 55650  70.0021   2.4497 0003232 273.7571  86.3218 14.98326370 29597,6950.204,96.107,574.315,569.823,0.0
55650.0,STARLINK-5494,PAYLOAD,2023-08-25 12:57:17,14.98326422,0.000333,70.0013,2.1127,274.7472,85.3307,-7.7256e-05,-1.015e-05,0.0,0 STARLINK-5494,1 55650U 23021Y   23237.53979071 -.00001015  00000-0 -77256-4 0  9997,2 55650  70.0013   2.1127 0003330 274.7472  85.3307 14.98326422 29917,6950.204,96.107,574.383,569.755,0.0
55650.0,STARLINK-5494,PAYLOAD,2023-08-25 17:45:41,14.9833133,0.0003274,70.0015,1.6084,273.4081,86.6704,-3.4852e-05,-5.09e-06,0.0,0 STARLINK-5494,1 55650U 23021Y   23237.74006636 -.00000509  00000-0 -34852-4 0  9990,2 55650  70.0015   1.6084 0003274 273.4081  86.6704 14.98331330 29946,6950.189,96.107,574.329,569.778,0.0
55650.0,STARLINK-5494,PAYLOAD,2023-08-25 20:57:57,14.9833307,0.0003286,70.0015,1.2708,274.716,85.3624,-2.9435e-06,-1.28e-06,0.0,0 STARLINK-5494,1 55650U 23021Y   23237.87358417 -.00000128  00000-0 -29435-5 0  9990,2 55650  70.0015   1.2708 0003286 274.7160  85.3624 14.98333070 29669,6950.183,96.107,574.332,569.765,0.0
55650.0,STARLINK-5494,PAYLOAD,2023-08-26 09:47:02,14.98326144,0.0003288,70.001,359.9237,267.9273,92.1509,-6.9783e-05,-9.25e-06,0.0,0 STARLINK-5494,1 55650U 23021Y   23238.40767023 -.00000925  00000-0 -69783-4 0  9991,2 55650  70.0010 359.9237 0003288 267.9273  92.1509 14.98326144 29746,6950.205,96.107,574.355,569.785,0.0
55650.0,STARLINK-5494,PAYLOAD,2023-08-26 11:23:10,14.98326086,0.0003123,70.0012,359.7549,261.6327,98.4478,-2.6389e-05,-4.08e-06,0.0,0 STARLINK-5494,1 55650U 23021Y   23238.47442887 -.00000408  00000-0 -26389-4 0  9997,2 55650  70.0012 359.7549 0003123 261.6327  98.4478 14.98326086 30056,6950.205,96.107,574.241,569.899,0.0
55650.0,STARLINK-5494,PAYLOAD,2023-08-26 17:47:42,14.98330724,0.000303,70.0015,359.0814,260.1648,99.9169,3.9666e-05,3.8e-06,0.0,0 STARLINK-5494,1 55650U 23021Y   23238.74146481  .00000380  00000-0  39666-4 0  9997,2 55650  70.0015 359.0814 0003030 260.1648  99.9169 14.98330724 29790,6950.191,96.107,574.162,569.95,0.0
